{
  "type": "FeatureCollection",
  "name": "sample_resource_sites",
  "crs": {
    "type": "name",
    "properties": {
      "name": "EPSG:4326"
    }
  },
  "features": [
    {
      "type": "Feature",
      "properties": {
        "site_id": "TG-001",
        "group_name": "Tang NWFP Group",
        "dzongkhag": "Bumthang",
        "product": "Cordyceps sinensis",
        "status": "Published"
      },
      "geometry": {
        "type": "Point",
        "coordinates": [90.7421, 27.5726]
      }
    },
    {
      "type": "Feature",
      "properties": {
        "site_id": "ZB-001",
        "group_name": "Zangbi NWFP Group",
        "dzongkhag": "Trongsa",
        "product": "Himalayan Cane",
        "status": "Published"
      },
      "geometry": {
        "type": "Point",
        "coordinates": [90.5072, 27.5028]
      }
    },
    {
      "type": "Feature",
      "properties": {
        "site_id": "SK-001",
        "group_name": "Sakteng Lhayul Sangzey Deytshen",
        "dzongkhag": "Trashigang",
        "product": "Daphne Bark",
        "status": "Review"
      },
      "geometry": {
        "type": "Point",
        "coordinates": [91.9471, 27.8452]
      }
    },
    {
      "type": "Feature",
      "properties": {
        "site_id": "SP-001",
        "group_name": "Sephu NWFP Group",
        "dzongkhag": "Wangdue Phodrang",
        "product": "Dried Wild Mushroom",
        "status": "Published"
      },
      "geometry": {
        "type": "Point",
        "coordinates": [90.1218, 27.5381]
      }
    }
  ]
}
